[{"OBJECT_NAME":"IRIDIUM 132","OBJECT_ID":"2017-061G","EPOCH":"2026-03-09T22:35:22.589952","MEAN_MOTION":14.34217397,"ECCENTRICITY":0.00019726,"INCLINATION":86.3913,"RA_OF_ASC_NODE":66.7375,"ARG_OF_PERICENTER":90.1934,"MEAN_ANOMALY":269.9487,"EPHEMERIS_TYPE":0,"CLASSIFICATION_TYPE":"U","NORAD_CAT_ID":42961,"ELEMENT_SET_NO":999,"REV_AT_EPOCH":44059,"BSTAR":-6.187907e-6,"MEAN_MOTION_DOT":2.0e-8,"MEAN_MOTION_DDOT":0},{"OBJECT_NAME":"SL-8 R\/B","OBJECT_ID":"1985-006B","EPOCH":"2026-03-09T22:41:04.465248","MEAN_MOTION":14.37783068,"ECCENTRICITY":0.00184373,"INCLINATION":74.0432,"RA_OF_ASC_NODE":260.6783,"ARG_OF_PERICENTER":178.4565,"MEAN_ANOMALY":288.736,"EPHEMERIS_TYPE":0,"CLASSIFICATION_TYPE":"U","NORAD_CAT_ID":15483,"ELEMENT_SET_NO":999,"REV_AT_EPOCH":15406,"BSTAR":0.00012950251,"MEAN_MOTION_DOT":3.64e-6,"MEAN_MOTION_DDOT":0}]
